SAUDISAT 1C (SO-50)     
1 27607U 02058C   26068.61742404  .00002222  00000+0  27919-3 0  9995
2 27607  64.5524  76.9957 0075248 280.7497  78.5144 14.82783142249695
STARLINK-32538          
1 62170U 24225H   26068.70219418  .00002021  00000+0  17708-3 0  9995
2 62170  70.0024 164.5555 0003592 267.0320  93.0428 14.98333906 69873
