[{"OBJECT_NAME":"SAUDISAT 1C (SO-50)","OBJECT_ID":"2002-058C","EPOCH":"2026-03-09T14:49:05.437056","MEAN_MOTION":14.82783142,"ECCENTRICITY":0.0075248,"INCLINATION":64.5524,"RA_OF_ASC_NODE":76.9957,"ARG_OF_PERICENTER":280.7497,"MEAN_ANOMALY":78.5144,"EPHEMERIS_TYPE":0,"CLASSIFICATION_TYPE":"U","NORAD_CAT_ID":27607,"ELEMENT_SET_NO":999,"REV_AT_EPOCH":24969,"BSTAR":0.00027919,"MEAN_MOTION_DOT":2.222e-5,"MEAN_MOTION_DDOT":0},{"OBJECT_NAME":"STARLINK-32538","OBJECT_ID":"2024-225H","EPOCH":"2026-03-09T16:51:09.578016","MEAN_MOTION":14.98333906,"ECCENTRICITY":0.00035916,"INCLINATION":70.0024,"RA_OF_ASC_NODE":164.5555,"ARG_OF_PERICENTER":267.032,"MEAN_ANOMALY":93.0428,"EPHEMERIS_TYPE":0,"CLASSIFICATION_TYPE":"U","NORAD_CAT_ID":62170,"ELEMENT_SET_NO":999,"REV_AT_EPOCH":6987,"BSTAR":0.00017707849,"MEAN_MOTION_DOT":2.021e-5,"MEAN_MOTION_DDOT":0}]
